start=new Date('2023-04-25T00:00:00.000Z').valueOf();
sats=[{"EPOCH":"2023-04-24T01:18:02.547360","MEAN_MOTION_DOT":"0.00052450","OBJECT_NAME":"STARLINK-2112","INCLINATION":"53.0551","MEAN_MOTION":"15.06418839","RCS_SIZE":"LARGE","PERIOD":"95.591","PERIAPSIS":"546.563","MEAN_ELEMENT_THEORY":"SGP4","ARG_OF_PERICENTER":"123.5627","TIME_SYSTEM":"UTC","CENTER_NAME":"EARTH","RA_OF_ASC_NODE":"68.1064","SITE":"AFETR","COUNTRY_CODE":"US","ECCENTRICITY":"0.00008560","TLE_LINE1":"1 47391U 21005AU  23114.05419615  .00052450  00000-0  35122-2 0  9995","MEAN_ANOMALY":"236.5444","LAUNCH_DATE":"2021-01-20","CLASSIFICATION_TYPE":"U","SEMIMAJOR_AXIS":"6925.291","ELEMENT_SET_NO":"999","GP_ID":"230696003","OBJECT_TYPE":"PAYLOAD","BSTAR":"0.00351220000000","EPHEMERIS_TYPE":"0","NORAD_CAT_ID":"47391","DECAY_DATE":null,"FILE":"3893330","OBJECT_ID":"2021-005AU","REV_AT_EPOCH":"12510","TLE_LINE2":"2 47391  53.0551  68.1064 0000856 123.5627 236.5444 15.06418839125107","REF_FRAME":"TEME","APOAPSIS":"547.749","MEAN_MOTION_DDOT":"0.0000000000000"},{"MEAN_MOTION_DOT":"0.00049602","EPOCH":"2023-04-24T06:06:01.253088","MEAN_MOTION":"15.06426554","INCLINATION":"53.0551","OBJECT_NAME":"STARLINK-2113","RCS_SIZE":"LARGE","PERIOD":"95.590","MEAN_ELEMENT_THEORY":"SGP4","PERIAPSIS":"545.505","ARG_OF_PERICENTER":"89.9852","CENTER_NAME":"EARTH","TIME_SYSTEM":"UTC","SITE":"AFETR","RA_OF_ASC_NODE":"67.1996","TLE_LINE1":"1 47392U 21005AV  23114.25418117  .00049602  00000-0  33231-2 0  9998","ECCENTRICITY":"0.00023490","COUNTRY_CODE":"US","MEAN_ANOMALY":"270.1406","LAUNCH_DATE":"2021-01-20","CLASSIFICATION_TYPE":"U","ELEMENT_SET_NO":"999","SEMIMAJOR_AXIS":"6925.267","OBJECT_TYPE":"PAYLOAD","BSTAR":"0.00332310000000","NORAD_CAT_ID":"47392","EPHEMERIS_TYPE":"0","GP_ID":"230696755","DECAY_DATE":null,"FILE":"3893330","REF_FRAME":"TEME","APOAPSIS":"548.759","TLE_LINE2":"2 47392  53.0551  67.1996 0002349  89.9852 270.1406 15.06426554125133","REV_AT_EPOCH":"12513","OBJECT_ID":"2021-005AV","MEAN_MOTION_DDOT":"0.0000000000000"},{"CENTER_NAME":"EARTH","TIME_SYSTEM":"UTC","SITE":"AFETR","RA_OF_ASC_NODE":"42.7491","MEAN_ELEMENT_THEORY":"SGP4","PERIAPSIS":"546.183","ARG_OF_PERICENTER":"83.5080","RCS_SIZE":"LARGE","PERIOD":"95.587","MEAN_MOTION_DOT":"0.00121589","EPOCH":"2023-04-24T05:08:22.252416","INCLINATION":"53.0556","OBJECT_NAME":"STARLINK-2114","MEAN_MOTION":"15.06480304","APOAPSIS":"547.752","REF_FRAME":"TEME","REV_AT_EPOCH":"12547","OBJECT_ID":"2021-005AW","TLE_LINE2":"2 47393  53.0556  42.7491 0001133  83.5080 276.6038 15.06480304125473","MEAN_MOTION_DDOT":"0.0000000000000","OBJECT_TYPE":"PAYLOAD","BSTAR":"0.00802480000000","NORAD_CAT_ID":"47393","EPHEMERIS_TYPE":"0","GP_ID":"230695504","FILE":"3893330","DECAY_DATE":null,"LAUNCH_DATE":"2021-01-20","CLASSIFICATION_TYPE":"U","ELEMENT_SET_NO":"999","SEMIMAJOR_AXIS":"6925.102","ECCENTRICITY":"0.00011330","TLE_LINE1":"1 47393U 21005AW  23114.21414644  .00121589  00000-0  80248-2 0  9991","COUNTRY_CODE":"US","MEAN_ANOMALY":"276.6038"},{"RCS_SIZE":"LARGE","PERIOD":"95.588","MEAN_MOTION_DOT":"0.00106892","EPOCH":"2023-04-24T05:05:40.751808","OBJECT_NAME":"STARLINK-2115","INCLINATION":"53.0551","MEAN_MOTION":"15.06470556","CENTER_NAME":"EARTH","TIME_SYSTEM":"UTC","SITE":"AFETR","RA_OF_ASC_NODE":"62.5548","PERIAPSIS":"546.209","MEAN_ELEMENT_THEORY":"SGP4","ARG_OF_PERICENTER":"113.5210","LAUNCH_DATE":"2021-01-20","CLASSIFICATION_TYPE":"U","ELEMENT_SET_NO":"999","SEMIMAJOR_AXIS":"6925.132","ECCENTRICITY":"0.00011390","TLE_LINE1":"1 47394U 21005AX  23114.21227722  .00106892  00000-0  70736-2 0  9992","COUNTRY_CODE":"US","MEAN_ANOMALY":"246.5899","APOAPSIS":"547.786","REF_FRAME":"TEME","OBJECT_ID":"2021-005AX","REV_AT_EPOCH":"12520","TLE_LINE2":"2 47394  53.0551  62.5548 0001139 113.5210 246.5899 15.06470556125207","MEAN_MOTION_DDOT":"0.0000000000000","OBJECT_TYPE":"PAYLOAD","BSTAR":"0.00707360000000","NORAD_CAT_ID":"47394","EPHEMERIS_TYPE":"0","GP_ID":"230695754","FILE":"3893330","DECAY_DATE":null},{"PERIOD":"95.587","RCS_SIZE":"LARGE","OBJECT_NAME":"STARLINK-2117","INCLINATION":"53.0537","MEAN_MOTION":"15.06476647","EPOCH":"2023-04-24T11:57:39.062592","MEAN_MOTION_DOT":"0.00090012","RA_OF_ASC_NODE":"56.1073","SITE":"AFETR","TIME_SYSTEM":"UTC","CENTER_NAME":"EARTH","PERIAPSIS":"546.137","MEAN_ELEMENT_THEORY":"SGP4","ARG_OF_PERICENTER":"136.5261","SEMIMAJOR_AXIS":"6925.114","ELEMENT_SET_NO":"999","LAUNCH_DATE":"2021-01-20","CLASSIFICATION_TYPE":"U","MEAN_ANOMALY":"223.5824","COUNTRY_CODE":"US","ECCENTRICITY":"0.00012160","TLE_LINE1":"1 47395U 21005AY  23114.49836878  .00090012  00000-0  59728-2 0  9995","MEAN_MOTION_DDOT":"0.0000000000000","OBJECT_ID":"2021-005AY","REV_AT_EPOCH":"12531","TLE_LINE2":"2 47395  53.0537  56.1073 0001216 136.5261 223.5824 15.06476647125313","REF_FRAME":"TEME","APOAPSIS":"547.821","FILE":"3893330","DECAY_DATE":null,"GP_ID":"230696504","NORAD_CAT_ID":"47395","OBJECT_TYPE":"PAYLOAD","BSTAR":"0.00597280000000","EPHEMERIS_TYPE":"0"},{"PERIAPSIS":"546.038","ARG_OF_PERICENTER":"87.9127","MEAN_ELEMENT_THEORY":"SGP4","TIME_SYSTEM":"UTC","CENTER_NAME":"EARTH","RA_OF_ASC_NODE":"67.1045","SITE":"AFETR","EPOCH":"2023-04-24T06:37:51.619296","MEAN_MOTION_DOT":"0.00101059","OBJECT_NAME":"STARLINK-2118","INCLINATION":"53.0553","MEAN_MOTION":"15.06454260","RCS_SIZE":"LARGE","PERIOD":"95.589","GP_ID":"230696255","OBJECT_TYPE":"PAYLOAD","BSTAR":"0.00669710000000","EPHEMERIS_TYPE":"0","NORAD_CAT_ID":"47396","FILE":"3893330","DECAY_DATE":null,"OBJECT_ID":"2021-005AZ","REV_AT_EPOCH":"12514","TLE_LINE2":"2 47396  53.0553  67.1045 0001457  87.9127 272.2029 15.06454260125146","APOAPSIS":"548.056","REF_FRAME":"TEME","MEAN_MOTION_DDOT":"0.0000000000000","COUNTRY_CODE":"US","ECCENTRICITY":"0.00014570","TLE_LINE1":"1 47396U 21005AZ  23114.27629189  .00101059  00000-0  66971-2 0  9999","MEAN_ANOMALY":"272.2029","LAUNCH_DATE":"2021-01-20","CLASSIFICATION_TYPE":"U","SEMIMAJOR_AXIS":"6925.182","ELEMENT_SET_NO":"999"},{"MEAN_MOTION_DDOT":"0.0000000000000","TLE_LINE2":"2 47397  53.0541  96.2271 0001062  92.2266 267.8845 15.06437001124759","REV_AT_EPOCH":"12475","OBJECT_ID":"2021-005BA","APOAPSIS":"547.836","REF_FRAME":"TEME","DECAY_DATE":null,"FILE":"3893330","GP_ID":"230695006","OBJECT_TYPE":"PAYLOAD","BSTAR":"0.00224900000000","NORAD_CAT_ID":"47397","EPHEMERIS_TYPE":"0","SEMIMAJOR_AXIS":"6925.235","ELEMENT_SET_NO":"999","LAUNCH_DATE":"2021-01-20","CLASSIFICATION_TYPE":"U","MEAN_ANOMALY":"267.8845","COUNTRY_CODE":"US","TLE_LINE1":"1 47397U 21005BA  23114.47256773  .00033410  00000-0  22490-2 0  9990","ECCENTRICITY":"0.00010620","RA_OF_ASC_NODE":"96.2271","SITE":"AFETR","TIME_SYSTEM":"UTC","CENTER_NAME":"EARTH","ARG_OF_PERICENTER":"92.2266","PERIAPSIS":"546.365","MEAN_ELEMENT_THEORY":"SGP4","PERIOD":"95.590","RCS_SIZE":"LARGE","MEAN_MOTION":"15.06437001","INCLINATION":"53.0541","OBJECT_NAME":"STARLINK-2119","EPOCH":"2023-04-24T11:20:29.851872","MEAN_MOTION_DOT":"0.00033410"},{"FILE":"3893330","DECAY_DATE":null,"GP_ID":"230695256","BSTAR":"0.00395120000000","OBJECT_TYPE":"PAYLOAD","NORAD_CAT_ID":"47398","EPHEMERIS_TYPE":"0","MEAN_MOTION_DDOT":"0.0000000000000","TLE_LINE2":"2 47398  53.0545  67.2343 0002131  99.6823 260.4407 15.06458494125135","OBJECT_ID":"2021-005BB","REV_AT_EPOCH":"12513","APOAPSIS":"548.510","REF_FRAME":"TEME","MEAN_ANOMALY":"260.4407","COUNTRY_CODE":"US","TLE_LINE1":"1 47398U 21005BB  23114.24681005  .00059162  00000-0  39512-2 0  9991","ECCENTRICITY":"0.00021310","SEMIMAJOR_AXIS":"6925.169","ELEMENT_SET_NO":"999","LAUNCH_DATE":"2021-01-20","CLASSIFICATION_TYPE":"U","ARG_OF_PERICENTER":"99.6823","PERIAPSIS":"545.559","MEAN_ELEMENT_THEORY":"SGP4","RA_OF_ASC_NODE":"67.2343","SITE":"AFETR","TIME_SYSTEM":"UTC","CENTER_NAME":"EARTH","MEAN_MOTION":"15.06458494","INCLINATION":"53.0545","OBJECT_NAME":"STARLINK-2120","EPOCH":"2023-04-24T05:55:24.388320","MEAN_MOTION_DOT":"0.00059162","PERIOD":"95.588","RCS_SIZE":"LARGE"},{"PERIAPSIS":"545.811","ARG_OF_PERICENTER":"84.4152","MEAN_ELEMENT_THEORY":"SGP4","RA_OF_ASC_NODE":"77.3172","SITE":"AFETR","TIME_SYSTEM":"UTC","CENTER_NAME":"EARTH","INCLINATION":"53.0540","OBJECT_NAME":"STARLINK-2121","MEAN_MOTION":"15.06448831","EPOCH":"2023-04-24T06:47:12.251616","MEAN_MOTION_DOT":"0.00048004","PERIOD":"95.589","RCS_SIZE":"LARGE","FILE":"3893330","DECAY_DATE":null,"GP_ID":"230696004","NORAD_CAT_ID":"47399","OBJECT_TYPE":"PAYLOAD","BSTAR":"0.00321550000000","EPHEMERIS_TYPE":"0","MEAN_MOTION_DDOT":"0.0000000000000","OBJECT_ID":"2021-005BC","REV_AT_EPOCH":"12499","TLE_LINE2":"2 47399  53.0540  77.3172 0001809  84.4152 275.7044 15.06448831124994","REF_FRAME":"TEME","APOAPSIS":"548.317","MEAN_ANOMALY":"275.7044","COUNTRY_CODE":"US","ECCENTRICITY":"0.00018090","TLE_LINE1":"1 47399U 21005BC  23114.28278069  .00048004  00000-0  32155-2 0  9997","SEMIMAJOR_AXIS":"6925.199","ELEMENT_SET_NO":"999","LAUNCH_DATE":"2021-01-20","CLASSIFICATION_TYPE":"U"},{"GP_ID":"230696756","NORAD_CAT_ID":"47400","OBJECT_TYPE":"PAYLOAD","BSTAR":"0.00636010000000","EPHEMERIS_TYPE":"0","FILE":"3893330","DECAY_DATE":null,"REV_AT_EPOCH":"12528","OBJECT_ID":"2021-005BD","TLE_LINE2":"2 47400  53.0554  56.9600 0001092 125.1280 234.9812 15.06466604125281","APOAPSIS":"547.766","REF_FRAME":"TEME","MEAN_MOTION_DDOT":"0.0000000000000","COUNTRY_CODE":"US","ECCENTRICITY":"0.00010920","TLE_LINE1":"1 47400U 21005BD  23114.31039146  .00095921  00000-0  63601-2 0  9995","MEAN_ANOMALY":"234.9812","LAUNCH_DATE":"2021-01-20","CLASSIFICATION_TYPE":"U","SEMIMAJOR_AXIS":"6925.144","ELEMENT_SET_NO":"999","PERIAPSIS":"546.253","MEAN_ELEMENT_THEORY":"SGP4","ARG_OF_PERICENTER":"125.1280","TIME_SYSTEM":"UTC","CENTER_NAME":"EARTH","RA_OF_ASC_NODE":"56.9600","SITE":"AFETR","EPOCH":"2023-04-24T07:26:57.822144","MEAN_MOTION_DOT":"0.00095921","INCLINATION":"53.0554","OBJECT_NAME":"STARLINK-2122","MEAN_MOTION":"15.06466604","RCS_SIZE":"LARGE","PERIOD":"95.588"}];
